<?xml version="1.0" encoding="UTF-8"?>
<kml xmlns="http://www.opengis.net/kml/2.2">
<Document>
  <Placemark><name>Plot A</name><Polygon><outerBoundaryIs><LinearRing><coordinates>77.59,12.97,0 77.591,12.97,0 77.591,12.971,0 77.59,12.971,0 77.59,12.97,0</coordinates></LinearRing></outerBoundaryIs></Polygon></Placemark>
  <Placemark><name>Path B</name><LineString><coordinates>77.59,12.97,0 77.592,12.972,0 77.594,12.9725,0</coordinates></LineString></Placemark>
  <Placemark><name>Marker C</name><Point><coordinates>77.595,12.973,0</coordinates></Point></Placemark>
</Document>
</kml>
